FENGYUN 3D              
1 43010U 17072A   26202.60945067 -.00000013  00000+0  15898-4 0  9993
2 43010  99.0155 177.6578 0001151   1.6794 358.4385 14.19745281449875
NOAA 20 (JPSS-1)        
1 43013U 17073A   26202.61007573  .00000028  00000+0  34127-4 0  9990
2 43013  98.7772 141.7679 0001601 117.5455 242.5884 14.19517347449354
GOES 17                 
1 43226U 18022A   26202.59859527 -.00000182  00000+0  00000+0 0  9992
2 43226   1.0232  85.1718 0000642  57.6902 282.4882  1.00272105 30766
SENTINEL-3B             
1 43437U 18039A   26202.62346592  .00000060  00000+0  42646-4 0  9992
2 43437  98.6231 269.6585 0001288 118.3854 241.7456 14.26737647429036
FENGYUN 2H              
1 43491U 18050A   26202.63201127 -.00000126  00000+0  00000+0 0  9997
2 43491   3.1181  78.6731 0002048 127.4120  39.8576  1.00267190 29780
METOP-C                 
1 43689U 18087A   26202.62822339  .00000051  00000+0  42961-4 0  9992
2 43689  98.6624 261.5988 0002089  85.4958 274.6458 14.21504070399724
GEO-KOMPSAT-2A          
1 43823U 18100A   26202.64172706 -.00000342  00000+0  00000+0 0  9993
2 43823   0.0283 140.4668 0002451 317.5010 200.7130  1.00271811 27972
METEOR-M2 2             
1 44387U 19038A   26202.59493963  .00000006  00000+0  22330-4 0  9996
2 44387  98.9173 190.3918 0000325 351.7673   8.3500 14.24373490366196
ARKTIKA-M 1             
1 47719U 21016A   26198.89672402 -.00000295  00000+0  00000+0 0  9997
2 47719  63.2571  53.1467 7298516 270.0868  14.5016  2.00610215 39409
FENGYUN 3E              
1 49008U 21062A   26202.58952453 -.00000148  00000+0 -48979-4 0  9990
2 49008  98.7510 205.6154 0001969  28.4860 331.6423 14.19906014261465
GOES 18                 
1 51850U 22021A   26202.58923522  .00000098  00000+0  00000+0 0  9999
2 51850   0.0153 138.6686 0000418  19.8967 215.8953  1.00271259  6939
NOAA 21 (JPSS-2)        
1 54234U 22150A   26202.57178498  .00000039  00000+0  39192-4 0  9998
2 54234  98.7059 140.7835 0002913  92.9119 267.2391 14.19541826191420
METEOSAT-12 (MTG-I1)    
1 54743U 22170C   26202.61627535 -.00000007  00000+0  00000+0 0  9998
2 54743   0.7316  20.7872 0004117  80.9483  59.1060  1.00269683 13328
TIANMU-1 03             
1 55973U 23039A   26202.50964578  .00013234  00000+0  25352-3 0  9994
2 55973  97.5253  17.8495 0002030   3.2708 356.8555 15.48164032186142
TIANMU-1 04             
1 55974U 23039B   26202.61472690  .00013105  00000+0  24561-3 0  9994
2 55974  97.5191  17.1157 0002348 346.9717  13.1472 15.48797340186179
TIANMU-1 05             
1 55975U 23039C   26202.55673105  .00013387  00000+0  25708-3 0  9998
2 55975  97.5235  17.5009 0002416  30.2358 329.9031 15.48089582186136
TIANMU-1 06             
1 55976U 23039D   26202.62034135  .00012755  00000+0  23999-3 0  9999
2 55976  97.5243  18.2379 0002443  18.7709 341.3631 15.48692084186170
FENGYUN 3G              
1 56232U 23055A   26202.32892367  .00018812  00000+0  29165-3 0  9990
2 56232  49.9912 169.9096 0006855  84.7618 275.4132 15.53974218185319
METEOR-M2 3             
1 57166U 23091A   26202.59722071 -.00000019  00000+0  10671-4 0  9994
2 57166  98.6064 256.8679 0005075  76.0581 284.1162 14.24049298159414
TIANMU-1 07             
1 57399U 23101A   26202.56689388  .00005009  00000+0  17417-3 0  9991
2 57399  97.2575 252.4501 0003285  51.4645 308.6890 15.30162474166901
TIANMU-1 08             
1 57400U 23101B   26202.59884087  .00005009  00000+0  17414-3 0  9997
2 57400  97.2563 252.2469 0003972  28.6205 331.5253 15.30166030166903
TIANMU-1 09             
1 57401U 23101C   26202.58142929  .00005090  00000+0  17668-3 0  9990
2 57401  97.2521 251.6282 0003874  49.9352 310.2229 15.30208698166908
TIANMU-1 10             
1 57402U 23101D   26202.61507861  .00005203  00000+0  18068-3 0  9996
2 57402  97.2601 252.7468 0005060  36.4563 323.7022 15.30182697166900
FENGYUN 3F              
1 57490U 23111A   26202.64307300  .00000014  00000+0  27076-4 0  9998
2 57490  98.6821 272.0070 0001143  75.2428 284.8876 14.19944164153753
ARKTIKA-M 2             
1 58584U 23198A   26202.15670971  .00000142  00000+0  00000+0 0  9996
2 58584  63.2169 150.5623 6912649 267.3229  18.7284  2.00607150 19000
TIANMU-1 11             
1 58645U 23205A   26202.58415799  .00004367  00000+0  16594-3 0  9997
2 58645  97.3448 223.6073 0007145 233.6800 126.3780 15.27304473142771
TIANMU-1 12             
1 58646U 23205B   26202.68861407  .00001042  00000+0  42054-4 0  9998
2 58646  97.3435 223.4540 0006365 212.9983 147.0859 15.26988515142771
TIANMU-1 13             
1 58647U 23205C   26202.59073310  .00004468  00000+0  17063-3 0  9993
2 58647  97.3464 223.6405 0006537 187.6512 172.4628 15.27130164142757
TIANMU-1 14             
1 58648U 23205D   26202.57494367  .00004399  00000+0  16779-3 0  9997
2 58648  97.3401 222.7798 0007131 194.8711 165.2319 15.27173873142757
TIANMU-1 19             
1 58660U 23208A   26202.58193926  .00006932  00000+0  22657-3 0  9999
2 58660  97.4523 319.0742 0005228 175.7333 184.3954 15.32039353142598
