OBJECT_NAME,OBJECT_ID,EPOCH,MEAN_MOTION,ECCENTRICITY,INCLINATION,RA_OF_ASC_NODE,ARG_OF_PERICENTER,MEAN_ANOMALY,EPHEMERIS_TYPE,CLASSIFICATION_TYPE,NORAD_CAT_ID,ELEMENT_SET_NO,REV_AT_EPOCH,BSTAR,MEAN_MOTION_DOT,MEAN_MOTION_DDOT
FENGYUN 3D,2017-072A,2026-07-21T14:37:36.537888,14.19745281,.00011511,99.0155,177.6578,1.6794,358.4385,0,U,43010,999,44987,.15898195E-4,-.13E-6,0
NOAA 20 (JPSS-1),2017-073A,2026-07-21T14:38:30.543072,14.19517347,.00016019,98.7772,141.7679,117.5455,242.5884,0,U,43013,999,44935,.3412706E-4,.28E-6,0
GOES 17,2018-022A,2026-07-21T14:21:58.631328,1.00272105,.00006423,1.0232,85.1718,57.6902,282.4882,0,U,43226,999,3076,0,-.182E-5,0
SENTINEL-3B,2018-039A,2026-07-21T14:57:47.455488,14.26737647,.0001288,98.6231,269.6585,118.3854,241.7456,0,U,43437,999,42903,.42646252E-4,.6E-6,0
FENGYUN 2H,2018-050A,2026-07-21T15:10:05.773728,1.00267190,.00020484,3.1181,78.6731,127.4120,39.8576,0,U,43491,999,2978,0,-.126E-5,0
METOP-C,2018-087A,2026-07-21T15:04:38.500896,14.21504070,.00020897,98.6624,261.5988,85.4958,274.6458,0,U,43689,999,39972,.42960871E-4,.51E-6,0
GEO-KOMPSAT-2A,2018-100A,2026-07-21T15:24:05.217984,1.00271811,.00024514,0.0283,140.4668,317.5010,200.7130,0,U,43823,999,2797,0,-.342E-5,0
METEOR-M2 2,2019-038A,2026-07-21T14:16:42.784032,14.24373490,.00003252,98.9173,190.3918,351.7673,8.3500,0,U,44387,999,36619,.22329771E-4,.6E-7,0
ARKTIKA-M 1,2021-016A,2026-07-17T21:31:16.955328,2.00610215,.72985164,63.2571,53.1467,270.0868,14.5016,0,U,47719,999,3940,0,-.295E-5,0
FENGYUN 3E,2021-062A,2026-07-21T14:08:54.919392,14.19906014,.00019697,98.7510,205.6154,28.4860,331.6423,0,U,49008,999,26146,-.48978585E-4,-.148E-5,0
GOES 18,2022-021A,2026-07-21T14:08:29.923008,1.00271259,.00004183,0.0153,138.6686,19.8967,215.8953,0,U,51850,999,693,0,.98E-6,0
NOAA 21 (JPSS-2),2022-150A,2026-07-21T13:43:22.222272,14.19541826,.00029132,98.7059,140.7835,92.9119,267.2391,0,U,54234,999,19142,.39192121E-4,.39E-6,0
METEOSAT-12 (MTG-I1),2022-170C,2026-07-21T14:47:26.190240,1.00269683,.00041176,0.7316,20.7872,80.9483,59.1060,0,U,54743,999,1332,0,-.7E-7,0
TIANMU-1 03,2023-039A,2026-07-21T12:13:53.395392,15.48164032,.00020301,97.5253,17.8495,3.2708,356.8555,0,U,55973,999,18614,.25351867E-3,.13234E-3,0
TIANMU-1 04,2023-039B,2026-07-21T14:45:12.404160,15.48797340,.00023486,97.5191,17.1157,346.9717,13.1472,0,U,55974,999,18617,.24561114E-3,.13105E-3,0
TIANMU-1 05,2023-039C,2026-07-21T13:21:41.562720,15.48089582,.0002416,97.5235,17.5009,30.2358,329.9031,0,U,55975,999,18613,.25708494E-3,.13387E-3,0
TIANMU-1 06,2023-039D,2026-07-21T14:53:17.492640,15.48692084,.00024434,97.5243,18.2379,18.7709,341.3631,0,U,55976,999,18617,.23999091E-3,.12755E-3,0
FENGYUN 3G,2023-055A,2026-07-21T07:53:39.005088,15.53974218,.00068553,49.9912,169.9096,84.7618,275.4132,0,U,56232,999,18531,.29165293E-3,.18812E-3,0
METEOR-M2 3,2023-091A,2026-07-21T14:19:59.869344,14.24049298,.00050755,98.6064,256.8679,76.0581,284.1162,0,U,57166,999,15941,.10670676E-4,-.19E-6,0
TIANMU-1 07,2023-101A,2026-07-21T13:36:19.631232,15.30162474,.00032851,97.2575,252.4501,51.4645,308.6890,0,U,57399,999,16690,.17417016E-3,.5009E-4,0
TIANMU-1 08,2023-101B,2026-07-21T14:22:19.851168,15.30166030,.00039727,97.2563,252.2469,28.6205,331.5253,0,U,57400,999,16690,.17413727E-3,.5009E-4,0
TIANMU-1 09,2023-101C,2026-07-21T13:57:15.490656,15.30208698,.00038744,97.2521,251.6282,49.9352,310.2229,0,U,57401,999,16690,.1766768E-3,.509E-4,0
TIANMU-1 10,2023-101D,2026-07-21T14:45:42.791904,15.30182697,.00050601,97.2601,252.7468,36.4563,323.7022,0,U,57402,999,16690,.18068401E-3,.5203E-4,0
FENGYUN 3F,2023-111A,2026-07-21T15:26:01.507200,14.19944164,.00011439,98.6821,272.0070,75.2428,284.8876,0,U,57490,999,15375,.27075596E-4,.14E-6,0
ARKTIKA-M 2,2023-198A,2026-07-21T03:45:39.718944,2.00607150,.69126494,63.2169,150.5623,267.3229,18.7284,0,U,58584,999,1900,0,.142E-5,0
TIANMU-1 11,2023-205A,2026-07-21T14:01:11.250336,15.27304473,.00071453,97.3448,223.6073,233.6800,126.3780,0,U,58645,999,14277,.16594296E-3,.4367E-4,0
TIANMU-1 12,2023-205B,2026-07-21T16:31:36.255648,15.26988515,.0006365,97.3435,223.4540,212.9983,147.0859,0,U,58646,999,14277,.42054E-4,.1042E-4,0
TIANMU-1 13,2023-205C,2026-07-21T14:10:39.339840,15.27130164,.00065378,97.3464,223.6405,187.6512,172.4628,0,U,58647,999,14275,.17062782E-3,.4468E-4,0
TIANMU-1 14,2023-205D,2026-07-21T13:47:55.133088,15.27173873,.00071317,97.3401,222.7798,194.8711,165.2319,0,U,58648,999,14275,.16779217E-3,.4399E-4,0
TIANMU-1 19,2023-208A,2026-07-21T13:57:59.552064,15.32039353,.00052282,97.4523,319.0742,175.7333,184.3954,0,U,58660,999,14259,.22656843E-3,.6932E-4,0
